NORAD_CAT_ID,OBJECT_NAME,OBJECT_TYPE,EPOCH,MEAN_MOTION,ECCENTRICITY,INCLINATION,RA_OF_ASC_NODE,ARG_OF_PERICENTER,MEAN_ANOMALY,BSTAR,MEAN_MOTION_DOT,MEAN_MOTION_DDOT,TLE_LINE0,TLE_LINE1,TLE_LINE2,SEMIMAJOR_AXIS,PERIOD,APOGEE,PERIGEE,DECAYED
51463.0,STARLINK-3419,PAYLOAD,2022-05-24 14:00:01,15.08831944,0.0001749,53.2191,17.0904,50.158,250.458,0.0003948,5.999e-05,0.0,0 STARLINK-3419,1 51463U 22010H   22144.58334491  .00005999  00000-0  39480-3 0  9993,2 51463  53.2191  17.0904 0001749  50.1580 250.4580 15.08831944  1304,6917.905,95.438,540.98,538.56,0.0
51463.0,STARLINK-3419,PAYLOAD,2022-05-24 22:00:00,15.08821843,0.0001981,53.2191,15.5959,47.8643,264.3429,0.00022285,3.259e-05,0.0,0 STARLINK-3419,1 51463U 22010H   22144.91667824  .00003259  00000-0  22285-3 0  9991,2 51463  53.2191  15.5959 0001981  47.8643 264.3429 15.08821843 18219,6917.936,95.439,541.1709999999998,538.43,0.0
51463.0,STARLINK-3419,PAYLOAD,2022-05-25 14:00:01,15.0883429,0.0001743,53.2192,12.6017,51.5609,283.8206,0.00070035,0.00010874,0.0,0 STARLINK-3419,1 51463U 22010H   22145.58334491  .00010874  00000-0  70035-3 0  9993,2 51463  53.2192  12.6017 0001743  51.5609 283.8206 15.08834290  1304,6917.898,95.438,540.969,538.557,0.0
51463.0,STARLINK-3419,PAYLOAD,2022-05-25 20:28:06,15.08839443,0.0001682,53.2198,11.3919,58.817,301.2987,-1.1275999999999997e-05,-4.68e-06,0.0,0 STARLINK-3419,1 51463U 22010H   22145.85285652 -.00000468  00000-0 -11276-4 0  9990,2 51463  53.2198  11.3919 0001682  58.8170 301.2987 15.08839443 17608,6917.882,95.438,540.911,538.5840000000002,0.0
51463.0,STARLINK-3419,PAYLOAD,2022-05-26 06:00:00,15.08870997,0.0001813,53.2187,9.6104,44.9632,313.5979,-0.0033341,-0.00053006,0.0,0 STARLINK-3419,1 51463U 22010H   22146.25001157 -.00053006  00000-0 -33341-2 0  9992,2 51463  53.2187   9.6104 0001813  44.9632 313.5979 15.08870997 18413,6917.786,95.436,540.905,538.396,0.0
51463.0,STARLINK-3419,PAYLOAD,2022-05-26 07:35:48,15.08834489,0.0001874,53.2203,9.3108,52.701,307.4153,7.2518e-05,8.66e-06,0.0,0 STARLINK-3419,1 51463U 22010H   22146.31653838  .00000866  00000-0  72518-4 0  9993,2 51463  53.2203   9.3108 0001874  52.7010 307.4153 15.08834489 17676,6917.897,95.438,541.059,538.466,0.0
51463.0,STARLINK-3419,PAYLOAD,2022-05-26 21:54:17,15.08830064,0.0001796,53.2204,6.6339,49.8565,310.2584,7.906100000000001e-05,9.7e-06,0.0,0 STARLINK-3419,1 51463U 22010H   22146.91270027  .00000970  00000-0  79061-4 0  9990,2 51463  53.2204   6.6339 0001796  49.8565 310.2584 15.08830064 17763,6917.911,95.438,541.018,538.533,0.0
51463.0,STARLINK-3419,PAYLOAD,2022-05-26 22:00:00,15.08823901,0.0001919,53.2187,6.6187,48.4352,333.3179,0.00028522,4.252e-05,0.0,0 STARLINK-3419,1 51463U 22010H   22146.91667824  .00004252  00000-0  28522-3 0  9997,2 51463  53.2187   6.6187 0001919  48.4352 333.3179 15.08823901 18512,6917.93,95.439,541.122,538.467,0.0
51463.0,STARLINK-3419,PAYLOAD,2022-05-27 14:00:01,15.08831569,0.0001815,53.2178,3.6269,55.3559,349.56300000000016,-0.0016396,-0.00026282,0.0,0 STARLINK-3419,1 51463U 22010H   22147.58334491 -.00026282  00000-0 -16396-2 0  9996,2 51463  53.2178   3.6269 0001815  55.3559 349.5630 15.08831569  1300,6917.906,95.438,541.0269999999998,538.516,0.0
51463.0,STARLINK-3419,PAYLOAD,2022-05-27 21:45:04,15.08839783,0.0001769,53.2197,2.1741,49.8805,310.2342,7.0799e-05,8.39e-06,0.0,0 STARLINK-3419,1 51463U 22010H   22147.90629846  .00000839  00000-0  70799-4 0  9990,2 51463  53.2197   2.1741 0001769  49.8805 310.2342 15.08839783 17915,6917.880999999999,95.438,540.97,538.5219999999998,0.0
51463.0,STARLINK-3419,PAYLOAD,2022-05-27 22:00:01,15.08847876,0.0001881,53.218,2.1299,48.6591,7.9244,-0.0018603,-0.0002978,0.0,0 STARLINK-3419,1 51463U 22010H   22147.91668981 -.00029780  00000-0 -18603-2 0  9996,2 51463  53.2180   2.1299 0001881  48.6591   7.9244 15.08847876 18665,6917.856,95.437,541.023,538.42,0.0
51463.0,STARLINK-3419,PAYLOAD,2022-05-28 14:00:01,15.08840069,0.0001708,53.2178,359.1354,53.5601,26.1444,0.0019227,0.00030445,0.0,0 STARLINK-3419,1 51463U 22010H   22148.58334491  .00030445  00000-0  19227-2 0  9997,2 51463  53.2178 359.1354 0001708  53.5601  26.1444 15.08840069 18767,6917.88,95.438,540.927,538.564,0.0
51463.0,STARLINK-3419,PAYLOAD,2022-05-28 20:00:27,15.08840416,0.0001813,53.2193,358.0109,49.5706,310.5445,0.00011641,1.565e-05,0.0,0 STARLINK-3419,1 51463U 22010H   22148.83365590  .00001565  00000-0  11641-3 0  9993,2 51463  53.2193 358.0109 0001813  49.5706 310.5445 15.08840416 18057,6917.879,95.438,540.998,538.49,0.0
51463.0,STARLINK-3419,PAYLOAD,2022-05-29 06:00:02,15.08858336,0.0001805,53.2175,356.1432,48.0603,54.9327,-0.0045976,-0.00072758,0.0,0 STARLINK-3419,1 51463U 22010H   22149.25002315 -.00072758  00000-0 -45976-2 0  9994,2 51463  53.2175 356.1432 0001805  48.0603  54.9327 15.08858336 18863,6917.824000000001,95.436,540.938,538.441,0.0
51463.0,STARLINK-3419,PAYLOAD,2022-05-29 13:29:42,15.08838826,0.0001984,53.2197,354.741,53.9659,306.1517,7.825e-05,9.57e-06,0.0,0 STARLINK-3419,1 51463U 22010H   22149.56229775  .00000957  00000-0  78250-4 0  9992,2 51463  53.2197 354.7410 0001984  53.9659 306.1517 15.08838826 18912,6917.884,95.438,541.121,538.376,0.0
51463.0,STARLINK-3419,PAYLOAD,2022-05-29 19:51:15,15.08834293,0.0002002,53.2208,353.5506,56.6545,303.4639,-4.0483e-05,-9.32e-06,0.0,0 STARLINK-3419,1 51463U 22010H   22149.82726473 -.00000932  00000-0 -40483-4 0  9990,2 51463  53.2208 353.5506 0002002  56.6545 303.4639 15.08834293 18205,6917.898,95.438,541.148,538.378,0.0
51463.0,STARLINK-3419,PAYLOAD,2022-05-29 22:00:00,15.08796082,0.0001892,53.2176,353.1517,46.2301,79.8622,0.00092224,0.00014402,0.0,0 STARLINK-3419,1 51463U 22010H   22149.91667824  .00014402  00000-0  92224-3 0  9998,2 51463  53.2176 353.1517 0001892  46.2301  79.8622 15.08796082 18960,6918.015,95.44,541.189,538.571,0.0
51463.0,STARLINK-3419,PAYLOAD,2022-05-30 14:00:01,15.08819985,0.0001801,53.2179,350.1571,52.4702,96.7261,0.00083155,0.00012964,0.0,0 STARLINK-3419,1 51463U 22010H   22150.58334491  .00012964  00000-0  83155-3 0  9998,2 51463  53.2179 350.1571 0001801  52.4702  96.7261 15.08819985  1309,6917.941999999999,95.439,541.052,538.561,0.0
51463.0,STARLINK-3419,PAYLOAD,2022-05-30 22:00:00,15.08809835,0.0001984,53.2179,348.6625,46.7445,114.031,0.0018181,0.00028742,0.0,0 STARLINK-3419,1 51463U 22010H   22150.91667824  .00028742  00000-0  18181-2 0  9991,2 51463  53.2179 348.6625 0001984  46.7445 114.0310 15.08809835  1305,6917.973000000001,95.439,541.21,538.465,0.0
51463.0,STARLINK-3419,PAYLOAD,2022-05-31 06:00:02,15.08841727,0.0001866,53.218,347.1648,48.7247,123.6834,-0.0011424,-0.00018424,0.0,0 STARLINK-3419,1 51463U 22010H   22151.25002315 -.00018424  00000-0 -11424-2 0  9998,2 51463  53.2180 347.1648 0001866  48.7247 123.6834 15.08841727 19163,6917.875,95.437,541.031,538.4490000000002,0.0
51463.0,STARLINK-3419,PAYLOAD,2022-05-31 22:00:00,15.08830491,0.0002034,53.2184,344.1733,47.0849,148.4549,0.0023526,0.00037343,0.0,0 STARLINK-3419,1 51463U 22010H   22151.91667824  .00037343  00000-0  23526-2 0  9998,2 51463  53.2184 344.1733 0002034  47.0849 148.4549 15.08830491 19262,6917.909000000002,95.438,541.182,538.367,0.0
51463.0,STARLINK-3419,PAYLOAD,2022-06-01 14:00:01,15.08875224,0.0001817,53.2187,341.1790000000001,53.1273,165.6211,-0.0026815,-0.00042753,0.0,0 STARLINK-3419,1 51463U 22010H   22152.58334491 -.00042753  00000-0 -26815-2 0  9990,2 51463  53.2187 341.1790 0001817  53.1273 165.6211 15.08875224 19363,6917.773,95.435,540.895,538.381,0.0
51463.0,STARLINK-3419,PAYLOAD,2022-06-01 20:00:01,15.08838334,0.0001926,53.2185,340.05800000000005,47.2109,90.2587,0.0001174,1.581e-05,0.0,0 STARLINK-3419,1 51463U 22010H   22152.83334491  .00001581  00000-0  11740-3 0  9992,2 51463  53.2185 340.0580 0001926  47.2109  90.2587 15.08838334  1304,6917.885,95.438,541.0830000000002,538.418,0.0
51463.0,STARLINK-3419,PAYLOAD,2022-06-02 19:14:24,15.08838858,0.0001648,53.2203,335.7095,37.5429,322.5678,-4.7013e-05,-1.036e-05,0.0,0 STARLINK-3419,1 51463U 22010H   22153.80167650 -.00001036  00000-0 -47013-4 0  9991,2 51463  53.2203 335.7095 0001648  37.5429 322.5678 15.08838858 18801,6917.884,95.438,540.889,538.609,0.0
51463.0,STARLINK-3419,PAYLOAD,2022-06-03 04:46:43,15.08838129,0.0001672,53.2199,333.9254,38.4517,321.6594,-7.4732e-05,-1.477e-05,0.0,0 STARLINK-3419,1 51463U 22010H   22154.19911804 -.00001477  00000-0 -74732-4 0  9999,2 51463  53.2199 333.9254 0001672  38.4517 321.6594 15.08838129 19615,6917.886,95.438,540.908,538.594,0.0
51463.0,STARLINK-3419,PAYLOAD,2022-06-03 12:43:39,15.08834631,0.0001713,53.2196,332.4386,40.9765,319.1356,-3.7602e-05,-8.86e-06,0.0,0 STARLINK-3419,1 51463U 22010H   22154.53031872 -.00000886  00000-0 -37602-4 0  9993,2 51463  53.2196 332.4386 0001713  40.9765 319.1356 15.08834631 18915,6917.897,95.438,540.947,538.577,0.0
51463.0,STARLINK-3419,PAYLOAD,2022-06-03 15:54:25,15.08837687,0.0001746,53.2193,331.8439,43.2142,316.8987,-5.5122e-06,-3.76e-06,0.0,0 STARLINK-3419,1 51463U 22010H   22154.66279595 -.00000376  00000-0 -55122-5 0  9995,2 51463  53.2193 331.8439 0001746  43.2142 316.8987 15.08837687 18935,6917.887,95.438,540.96,538.545,0.0
51463.0,STARLINK-3419,PAYLOAD,2022-06-04 10:59:02,15.08842841,0.000171,53.2192,328.2757,45.3995,314.7137,4.4899e-05,4.27e-06,0.0,0 STARLINK-3419,1 51463U 22010H   22155.45767054  .00000427  00000-0  44899-4 0  9998,2 51463  53.2192 328.2757 0001710  45.3995 314.7137 15.08842841 19806,6917.871999999999,95.437,540.92,538.554,0.0
51463.0,STARLINK-3419,PAYLOAD,2022-06-05 22:00:00,15.0882279,0.0001803,53.2176,321.7287,44.5992,324.9031,0.0028725,0.00045703,0.0,0 STARLINK-3419,1 51463U 22010H   22156.91667824  .00045703  00000-0  28725-2 0  9998,2 51463  53.2176 321.7287 0001803  44.5992 324.9031 15.08822790 20028,6917.933000000001,95.439,541.045,538.5509999999998,0.0
